GAOFEN DUOMO (GFDM)     
1 45856U 20042A   26087.91994470  .00000443  00000+0  70028-4 0  9993
2 45856  97.7831 150.6977 0010601 338.1649  21.9108 14.76873245309169
ZIYUAN 3-03 (ZY 3-03)   
1 45939U 20051A   26087.94338573  .00004731  00000+0  21449-3 0  9990
2 45939  97.2897 158.2359 0005318 212.1958 147.8954 15.21290033315140
TYVAK-0172              
1 46267U 20059C   26087.65094278  .00851213  00000+0  29701-2 0  9995
2 46267  97.7176 332.2901 0003179 116.2351 243.9246 15.87313929306112
ION-MK01                
1 46274U 20061C   26087.77870534  .00366155  56587-4  83853-3 0  9997
2 46274  97.1935 167.8654 0004360 229.8819 130.2077 15.97350610310683
NEMO-HD                 
1 46277U 20061F   26087.88419837  .00012342  00000+0  28243-3 0  9999
2 46277  97.2010 150.7112 0001377  66.1983 293.9410 15.42941210309598
3CAT-5A                 
1 46292U 20061W   26087.72725592  .00020137  00000+0  44978-3 0  9991
2 46292  97.2495 150.8301 0003181  79.5176 280.6431 15.43553684308602
3CAT-5B                 
1 46293U 20061X   26087.90645855  .00021666  00000+0  46488-3 0  9991
2 46293  97.2495 151.8423 0003287  76.2119 283.9496 15.44730987308653
NAPA-1                  
1 46320U 20061BA  26087.95687480  .00058014  00000+0  74385-3 0  9991
2 46320  97.2550 160.0432 0001154 144.3258 215.8076 15.58978147309207
JILIN-1 GAOFEN 3B       
1 46454U 20065A   26087.85362881  .00324829  00000+0  11479-2 0  9991
2 46454  97.2306 146.4564 0002248 175.4362 184.6931 15.88282514307754
JILIN-1 GAOFEN 3E       
1 46457U 20065D   26087.88122531  .00051173  00000+0  74288-3 0  9990
2 46457  97.2389 139.0853 0015035 102.3329 257.9610 15.55530806307243
JILIN-1 GAOFEN 3F       
1 46458U 20065E   26087.92334964  .00050388  00000+0  77846-3 0  9991
2 46458  97.2347 136.7768 0016277  90.7953 269.5166 15.53803905307212
JILIN-1 GAOFEN 3G       
1 46459U 20065F   26087.90979406  .00063784  00000+0  78238-3 0  9996
2 46459  97.2420 142.5205 0010332 355.1042   5.0113 15.60065681307381
JILIN-1 GAOFEN 3H       
1 46460U 20065G   26087.88298278  .00055582  00000+0  73218-3 0  9996
2 46460  97.2365 139.1855 0005836 273.9200  86.1389 15.58249978307341
JILIN-1 GAOFEN 3J       
1 46462U 20065J   26087.89140693  .00237402  00000+0  11419-2 0  9993
2 46462  97.2345 145.6802 0001830 125.5279 234.6161 15.82021042307708
HAIYANG-2C              
1 46469U 20066A   26087.91855659  .00000179  00000+0  23661-3 0  9991
2 46469  65.9971  55.1330 0011975 247.4972 112.4829 13.83377774278399
HJ-2A                   
1 46478U 20067A   26087.92907116  .00000996  00000+0  15019-3 0  9994
2 46478  97.8850 168.1896 0003672 141.6183 218.5289 14.76506155296416
