[{"OBJECT_NAME":"GAOFEN DUOMO (GFDM)","OBJECT_ID":"2020-042A","EPOCH":"2026-03-28T22:04:43.222080","MEAN_MOTION":14.76873245,"ECCENTRICITY":0.00106012,"INCLINATION":97.7831,"RA_OF_ASC_NODE":150.6977,"ARG_OF_PERICENTER":338.1649,"MEAN_ANOMALY":21.9108,"EPHEMERIS_TYPE":0,"CLASSIFICATION_TYPE":"U","NORAD_CAT_ID":45856,"ELEMENT_SET_NO":999,"REV_AT_EPOCH":30916,"BSTAR":7.0027762e-5,"MEAN_MOTION_DOT":4.43e-6,"MEAN_MOTION_DDOT":0},{"OBJECT_NAME":"ZIYUAN 3-03 (ZY 3-03)","OBJECT_ID":"2020-051A","EPOCH":"2026-03-28T22:38:28.527072","MEAN_MOTION":15.21290033,"ECCENTRICITY":0.00053186,"INCLINATION":97.2897,"RA_OF_ASC_NODE":158.2359,"ARG_OF_PERICENTER":212.1958,"MEAN_ANOMALY":147.8954,"EPHEMERIS_TYPE":0,"CLASSIFICATION_TYPE":"U","NORAD_CAT_ID":45939,"ELEMENT_SET_NO":999,"REV_AT_EPOCH":31514,"BSTAR":0.00021448944,"MEAN_MOTION_DOT":4.731e-5,"MEAN_MOTION_DDOT":0},{"OBJECT_NAME":"TYVAK-0172","OBJECT_ID":"2020-059C","EPOCH":"2026-03-28T15:37:21.456192","MEAN_MOTION":15.87313929,"ECCENTRICITY":0.0003179,"INCLINATION":97.7176,"RA_OF_ASC_NODE":332.2901,"ARG_OF_PERICENTER":116.2351,"MEAN_ANOMALY":243.9246,"EPHEMERIS_TYPE":0,"CLASSIFICATION_TYPE":"U","NORAD_CAT_ID":46267,"ELEMENT_SET_NO":999,"REV_AT_EPOCH":30611,"BSTAR":0.0029701,"MEAN_MOTION_DOT":0.00851213,"MEAN_MOTION_DDOT":0},{"OBJECT_NAME":"ION-MK01","OBJECT_ID":"2020-061C","EPOCH":"2026-03-28T18:41:20.141376","MEAN_MOTION":15.9735061,"ECCENTRICITY":0.00043604,"INCLINATION":97.1935,"RA_OF_ASC_NODE":167.8654,"ARG_OF_PERICENTER":229.8819,"MEAN_ANOMALY":130.2077,"EPHEMERIS_TYPE":0,"CLASSIFICATION_TYPE":"U","NORAD_CAT_ID":46274,"ELEMENT_SET_NO":999,"REV_AT_EPOCH":31068,"BSTAR":0.00083852954,"MEAN_MOTION_DOT":0.00366155,"MEAN_MOTION_DDOT":5.6586792e-5},{"OBJECT_NAME":"NEMO-HD","OBJECT_ID":"2020-061F","EPOCH":"2026-03-28T21:13:14.739168","MEAN_MOTION":15.4294121,"ECCENTRICITY":0.00013775,"INCLINATION":97.201,"RA_OF_ASC_NODE":150.7112,"ARG_OF_PERICENTER":66.1983,"MEAN_ANOMALY":293.941,"EPHEMERIS_TYPE":0,"CLASSIFICATION_TYPE":"U","NORAD_CAT_ID":46277,"ELEMENT_SET_NO":999,"REV_AT_EPOCH":30959,"BSTAR":0.00028242753,"MEAN_MOTION_DOT":0.00012342,"MEAN_MOTION_DDOT":0},{"OBJECT_NAME":"3CAT-5A","OBJECT_ID":"2020-061W","EPOCH":"2026-03-28T17:27:14.911488","MEAN_MOTION":15.43553684,"ECCENTRICITY":0.00031819,"INCLINATION":97.2495,"RA_OF_ASC_NODE":150.8301,"ARG_OF_PERICENTER":79.5176,"MEAN_ANOMALY":280.6431,"EPHEMERIS_TYPE":0,"CLASSIFICATION_TYPE":"U","NORAD_CAT_ID":46292,"ELEMENT_SET_NO":999,"REV_AT_EPOCH":30860,"BSTAR":0.00044978413,"MEAN_MOTION_DOT":0.00020137,"MEAN_MOTION_DDOT":0},{"OBJECT_NAME":"3CAT-5B","OBJECT_ID":"2020-061X","EPOCH":"2026-03-28T21:45:18.018720","MEAN_MOTION":15.44730987,"ECCENTRICITY":0.00032875,"INCLINATION":97.2495,"RA_OF_ASC_NODE":151.8423,"ARG_OF_PERICENTER":76.2119,"MEAN_ANOMALY":283.9496,"EPHEMERIS_TYPE":0,"CLASSIFICATION_TYPE":"U","NORAD_CAT_ID":46293,"ELEMENT_SET_NO":999,"REV_AT_EPOCH":30865,"BSTAR":0.00046488361,"MEAN_MOTION_DOT":0.00021666,"MEAN_MOTION_DDOT":0},{"OBJECT_NAME":"NAPA-1","OBJECT_ID":"2020-061BA","EPOCH":"2026-03-28T22:57:53.982720","MEAN_MOTION":15.58978147,"ECCENTRICITY":0.00011541,"INCLINATION":97.255,"RA_OF_ASC_NODE":160.0432,"ARG_OF_PERICENTER":144.3258,"MEAN_ANOMALY":215.8076,"EPHEMERIS_TYPE":0,"CLASSIFICATION_TYPE":"U","NORAD_CAT_ID":46320,"ELEMENT_SET_NO":999,"REV_AT_EPOCH":30920,"BSTAR":0.00074384794,"MEAN_MOTION_DOT":0.00058014,"MEAN_MOTION_DDOT":0},{"OBJECT_NAME":"JILIN-1 GAOFEN 3B","OBJECT_ID":"2020-065A","EPOCH":"2026-03-28T20:29:13.529184","MEAN_MOTION":15.88282514,"ECCENTRICITY":0.00022481,"INCLINATION":97.2306,"RA_OF_ASC_NODE":146.4564,"ARG_OF_PERICENTER":175.4362,"MEAN_ANOMALY":184.6931,"EPHEMERIS_TYPE":0,"CLASSIFICATION_TYPE":"U","NORAD_CAT_ID":46454,"ELEMENT_SET_NO":999,"REV_AT_EPOCH":30775,"BSTAR":0.0011478564,"MEAN_MOTION_DOT":0.00324829,"MEAN_MOTION_DDOT":0},{"OBJECT_NAME":"JILIN-1 GAOFEN 3E","OBJECT_ID":"2020-065D","EPOCH":"2026-03-28T21:08:57.866784","MEAN_MOTION":15.55530806,"ECCENTRICITY":0.0015035,"INCLINATION":97.2389,"RA_OF_ASC_NODE":139.0853,"ARG_OF_PERICENTER":102.3329,"MEAN_ANOMALY":257.961,"EPHEMERIS_TYPE":0,"CLASSIFICATION_TYPE":"U","NORAD_CAT_ID":46457,"ELEMENT_SET_NO":999,"REV_AT_EPOCH":30724,"BSTAR":0.00074287882,"MEAN_MOTION_DOT":0.00051173,"MEAN_MOTION_DDOT":0},{"OBJECT_NAME":"JILIN-1 GAOFEN 3F","OBJECT_ID":"2020-065E","EPOCH":"2026-03-28T22:09:37.408896","MEAN_MOTION":15.53803905,"ECCENTRICITY":0.00162772,"INCLINATION":97.2347,"RA_OF_ASC_NODE":136.7768,"ARG_OF_PERICENTER":90.7953,"MEAN_ANOMALY":269.5166,"EPHEMERIS_TYPE":0,"CLASSIFICATION_TYPE":"U","NORAD_CAT_ID":46458,"ELEMENT_SET_NO":999,"REV_AT_EPOCH":30721,"BSTAR":0.00077845889,"MEAN_MOTION_DOT":0.00050388,"MEAN_MOTION_DDOT":0},{"OBJECT_NAME":"JILIN-1 GAOFEN 3G","OBJECT_ID":"2020-065F","EPOCH":"2026-03-28T21:50:06.206784","MEAN_MOTION":15.60065681,"ECCENTRICITY":0.00103326,"INCLINATION":97.242,"RA_OF_ASC_NODE":142.5205,"ARG_OF_PERICENTER":355.1042,"MEAN_ANOMALY":5.0113,"EPHEMERIS_TYPE":0,"CLASSIFICATION_TYPE":"U","NORAD_CAT_ID":46459,"ELEMENT_SET_NO":999,"REV_AT_EPOCH":30738,"BSTAR":0.00078237672,"MEAN_MOTION_DOT":0.00063784,"MEAN_MOTION_DDOT":0},{"OBJECT_NAME":"JILIN-1 GAOFEN 3H","OBJECT_ID":"2020-065G","EPOCH":"2026-03-28T21:11:29.712192","MEAN_MOTION":15.58249978,"ECCENTRICITY":0.00058367,"INCLINATION":97.2365,"RA_OF_ASC_NODE":139.1855,"ARG_OF_PERICENTER":273.92,"MEAN_ANOMALY":86.1389,"EPHEMERIS_TYPE":0,"CLASSIFICATION_TYPE":"U","NORAD_CAT_ID":46460,"ELEMENT_SET_NO":999,"REV_AT_EPOCH":30734,"BSTAR":0.00073217842,"MEAN_MOTION_DOT":0.00055582,"MEAN_MOTION_DDOT":0},{"OBJECT_NAME":"JILIN-1 GAOFEN 3J","OBJECT_ID":"2020-065J","EPOCH":"2026-03-28T21:23:37.558752","MEAN_MOTION":15.82021042,"ECCENTRICITY":0.000183,"INCLINATION":97.2345,"RA_OF_ASC_NODE":145.6802,"ARG_OF_PERICENTER":125.5279,"MEAN_ANOMALY":234.6161,"EPHEMERIS_TYPE":0,"CLASSIFICATION_TYPE":"U","NORAD_CAT_ID":46462,"ELEMENT_SET_NO":999,"REV_AT_EPOCH":30770,"BSTAR":0.0011418654,"MEAN_MOTION_DOT":0.00237402,"MEAN_MOTION_DDOT":0},{"OBJECT_NAME":"HAIYANG-2C","OBJECT_ID":"2020-066A","EPOCH":"2026-03-28T22:02:43.289376","MEAN_MOTION":13.83377774,"ECCENTRICITY":0.00119752,"INCLINATION":65.9971,"RA_OF_ASC_NODE":55.133,"ARG_OF_PERICENTER":247.4972,"MEAN_ANOMALY":112.4829,"EPHEMERIS_TYPE":0,"CLASSIFICATION_TYPE":"U","NORAD_CAT_ID":46469,"ELEMENT_SET_NO":999,"REV_AT_EPOCH":27839,"BSTAR":0.00023660716,"MEAN_MOTION_DOT":1.79e-6,"MEAN_MOTION_DDOT":0},{"OBJECT_NAME":"HJ-2A","OBJECT_ID":"2020-067A","EPOCH":"2026-03-28T22:17:51.748224","MEAN_MOTION":14.76506155,"ECCENTRICITY":0.00036727,"INCLINATION":97.885,"RA_OF_ASC_NODE":168.1896,"ARG_OF_PERICENTER":141.6183,"MEAN_ANOMALY":218.5289,"EPHEMERIS_TYPE":0,"CLASSIFICATION_TYPE":"U","NORAD_CAT_ID":46478,"ELEMENT_SET_NO":999,"REV_AT_EPOCH":29641,"BSTAR":0.00015019015,"MEAN_MOTION_DOT":9.96e-6,"MEAN_MOTION_DDOT":0}]
